ORBCOMM-X               
1 21576U 91050C   24119.76048661  .00000769  00000+0  24512-3 0  9999
2 21576  98.3920 187.7764 0003732  19.1315 341.0014 14.42471103722358
ORBCOMM FM01            
1 23545U 95017A   24120.41766505  .00005804  00000+0  77942-3 0  9992
2 23545  69.9692  17.6495 0008637 238.1720 121.8589 14.79782634551434
ORBCOMM FM02            
1 23546U 95017B   24119.90264657  .00008603  00000+0  11611-2 0  9996
2 23546  69.9708  38.3151 0010409 233.3019 126.7174 14.79356753550656
ORBCOMM FM08            
1 25112U 97084A   24120.45395168  .00002069  00000+0  66131-3 0  9995
2 25112  45.0128 188.8958 0008572 306.9941  53.0125 14.42469363381734
ORBCOMM FM10            
1 25113U 97084B   24120.46020016  .00001813  00000+0  58590-3 0  9990
2 25113  45.0138 190.7126 0006903 280.6606  79.3467 14.42383060381725
ORBCOMM FM11            
1 25114U 97084C   24119.92383892  .00002170  00000+0  69442-3 0  9999
2 25114  45.0122 193.3322 0007607 279.5226  80.4764 14.42263429381609
ORBCOMM FM12            
1 25115U 97084D   24119.88336250  .00002321  00000+0  74050-3 0  9990
2 25115  45.0131 193.2180 0006667 278.4378  81.5716 14.42222270381396
ORBCOMM FM09            
1 25116U 97084E   24120.44855760  .00001763  00000+0  57332-3 0  9990
2 25116  45.0135 191.2032 0007909 271.1714  88.8230 14.42189868381711
