<?xml version="1.0" encoding="UTF-8"?>
<ndm xmlns:xsi="http://www.w3.org/2001/XMLSchema-instance" xsi:noNamespaceSchemaLocation="https://sanaregistry.org/r/ndmxml_unqualified/ndmxml-2.0.0-master-2.0.xsd">
<omm id="CCSDS_OMM_VERS" version="2.0">
<header><CREATION_DATE/><ORIGINATOR/></header><body><segment><metadata><OBJECT_NAME>ORBCOMM-X</OBJECT_NAME><OBJECT_ID>1991-050C</OBJECT_ID><CENTER_NAME>EARTH</CENTER_NAME><REF_FRAME>TEME</REF_FRAME><TIME_SYSTEM>UTC</TIME_SYSTEM><MEAN_ELEMENT_THEORY>SGP4</MEAN_ELEMENT_THEORY></metadata><data><meanElements><EPOCH>2024-04-28T18:15:06.043104</EPOCH><MEAN_MOTION>14.42471103</MEAN_MOTION><ECCENTRICITY>.0003732</ECCENTRICITY><INCLINATION>98.3920</INCLINATION><RA_OF_ASC_NODE>187.7764</RA_OF_ASC_NODE><ARG_OF_PERICENTER>19.1315</ARG_OF_PERICENTER><MEAN_ANOMALY>341.0014</MEAN_ANOMALY></meanElements><tleParameters><EPHEMERIS_TYPE>0</EPHEMERIS_TYPE><CLASSIFICATION_TYPE>U</CLASSIFICATION_TYPE><NORAD_CAT_ID>21576</NORAD_CAT_ID><ELEMENT_SET_NO>999</ELEMENT_SET_NO><REV_AT_EPOCH>72235</REV_AT_EPOCH><BSTAR>.24512E-3</BSTAR><MEAN_MOTION_DOT>.769E-5</MEAN_MOTION_DOT><MEAN_MOTION_DDOT>0</MEAN_MOTION_DDOT></tleParameters></data></segment></body></omm>
<omm id="CCSDS_OMM_VERS" version="2.0">
<header><CREATION_DATE/><ORIGINATOR/></header><body><segment><metadata><OBJECT_NAME>ORBCOMM FM01</OBJECT_NAME><OBJECT_ID>1995-017A</OBJECT_ID><CENTER_NAME>EARTH</CENTER_NAME><REF_FRAME>TEME</REF_FRAME><TIME_SYSTEM>UTC</TIME_SYSTEM><MEAN_ELEMENT_THEORY>SGP4</MEAN_ELEMENT_THEORY></metadata><data><meanElements><EPOCH>2024-04-29T10:01:26.260320</EPOCH><MEAN_MOTION>14.79782634</MEAN_MOTION><ECCENTRICITY>.0008637</ECCENTRICITY><INCLINATION>69.9692</INCLINATION><RA_OF_ASC_NODE>17.6495</RA_OF_ASC_NODE><ARG_OF_PERICENTER>238.1720</ARG_OF_PERICENTER><MEAN_ANOMALY>121.8589</MEAN_ANOMALY></meanElements><tleParameters><EPHEMERIS_TYPE>0</EPHEMERIS_TYPE><CLASSIFICATION_TYPE>U</CLASSIFICATION_TYPE><NORAD_CAT_ID>23545</NORAD_CAT_ID><ELEMENT_SET_NO>999</ELEMENT_SET_NO><REV_AT_EPOCH>55143</REV_AT_EPOCH><BSTAR>.77942E-3</BSTAR><MEAN_MOTION_DOT>.5804E-4</MEAN_MOTION_DOT><MEAN_MOTION_DDOT>0</MEAN_MOTION_DDOT></tleParameters></data></segment></body></omm>
<omm id="CCSDS_OMM_VERS" version="2.0">
<header><CREATION_DATE/><ORIGINATOR/></header><body><segment><metadata><OBJECT_NAME>ORBCOMM FM02</OBJECT_NAME><OBJECT_ID>1995-017B</OBJECT_ID><CENTER_NAME>EARTH</CENTER_NAME><REF_FRAME>TEME</REF_FRAME><TIME_SYSTEM>UTC</TIME_SYSTEM><MEAN_ELEMENT_THEORY>SGP4</MEAN_ELEMENT_THEORY></metadata><data><meanElements><EPOCH>2024-04-28T21:39:48.663648</EPOCH><MEAN_MOTION>14.79356753</MEAN_MOTION><ECCENTRICITY>.0010409</ECCENTRICITY><INCLINATION>69.9708</INCLINATION><RA_OF_ASC_NODE>38.3151</RA_OF_ASC_NODE><ARG_OF_PERICENTER>233.3019</ARG_OF_PERICENTER><MEAN_ANOMALY>126.7174</MEAN_ANOMALY></meanElements><tleParameters><EPHEMERIS_TYPE>0</EPHEMERIS_TYPE><CLASSIFICATION_TYPE>U</CLASSIFICATION_TYPE><NORAD_CAT_ID>23546</NORAD_CAT_ID><ELEMENT_SET_NO>999</ELEMENT_SET_NO><REV_AT_EPOCH>55065</REV_AT_EPOCH><BSTAR>.11611E-2</BSTAR><MEAN_MOTION_DOT>.8603E-4</MEAN_MOTION_DOT><MEAN_MOTION_DDOT>0</MEAN_MOTION_DDOT></tleParameters></data></segment></body></omm>
<omm id="CCSDS_OMM_VERS" version="2.0">
<header><CREATION_DATE/><ORIGINATOR/></header><body><segment><metadata><OBJECT_NAME>ORBCOMM FM08</OBJECT_NAME><OBJECT_ID>1997-084A</OBJECT_ID><CENTER_NAME>EARTH</CENTER_NAME><REF_FRAME>TEME</REF_FRAME><TIME_SYSTEM>UTC</TIME_SYSTEM><MEAN_ELEMENT_THEORY>SGP4</MEAN_ELEMENT_THEORY></metadata><data><meanElements><EPOCH>2024-04-29T10:53:41.425152</EPOCH><MEAN_MOTION>14.42469363</MEAN_MOTION><ECCENTRICITY>.0008572</ECCENTRICITY><INCLINATION>45.0128</INCLINATION><RA_OF_ASC_NODE>188.8958</RA_OF_ASC_NODE><ARG_OF_PERICENTER>306.9941</ARG_OF_PERICENTER><MEAN_ANOMALY>53.0125</MEAN_ANOMALY></meanElements><tleParameters><EPHEMERIS_TYPE>0</EPHEMERIS_TYPE><CLASSIFICATION_TYPE>U</CLASSIFICATION_TYPE><NORAD_CAT_ID>25112</NORAD_CAT_ID><ELEMENT_SET_NO>999</ELEMENT_SET_NO><REV_AT_EPOCH>38173</REV_AT_EPOCH><BSTAR>.66131E-3</BSTAR><MEAN_MOTION_DOT>.2069E-4</MEAN_MOTION_DOT><MEAN_MOTION_DDOT>0</MEAN_MOTION_DDOT></tleParameters></data></segment></body></omm>
<omm id="CCSDS_OMM_VERS" version="2.0">
<header><CREATION_DATE/><ORIGINATOR/></header><body><segment><metadata><OBJECT_NAME>ORBCOMM FM10</OBJECT_NAME><OBJECT_ID>1997-084B</OBJECT_ID><CENTER_NAME>EARTH</CENTER_NAME><REF_FRAME>TEME</REF_FRAME><TIME_SYSTEM>UTC</TIME_SYSTEM><MEAN_ELEMENT_THEORY>SGP4</MEAN_ELEMENT_THEORY></metadata><data><meanElements><EPOCH>2024-04-29T11:02:41.293824</EPOCH><MEAN_MOTION>14.42383060</MEAN_MOTION><ECCENTRICITY>.0006903</ECCENTRICITY><INCLINATION>45.0138</INCLINATION><RA_OF_ASC_NODE>190.7126</RA_OF_ASC_NODE><ARG_OF_PERICENTER>280.6606</ARG_OF_PERICENTER><MEAN_ANOMALY>79.3467</MEAN_ANOMALY></meanElements><tleParameters><EPHEMERIS_TYPE>0</EPHEMERIS_TYPE><CLASSIFICATION_TYPE>U</CLASSIFICATION_TYPE><NORAD_CAT_ID>25113</NORAD_CAT_ID><ELEMENT_SET_NO>999</ELEMENT_SET_NO><REV_AT_EPOCH>38172</REV_AT_EPOCH><BSTAR>.5859E-3</BSTAR><MEAN_MOTION_DOT>.1813E-4</MEAN_MOTION_DOT><MEAN_MOTION_DDOT>0</MEAN_MOTION_DDOT></tleParameters></data></segment></body></omm>
<omm id="CCSDS_OMM_VERS" version="2.0">
<header><CREATION_DATE/><ORIGINATOR/></header><body><segment><metadata><OBJECT_NAME>ORBCOMM FM11</OBJECT_NAME><OBJECT_ID>1997-084C</OBJECT_ID><CENTER_NAME>EARTH</CENTER_NAME><REF_FRAME>TEME</REF_FRAME><TIME_SYSTEM>UTC</TIME_SYSTEM><MEAN_ELEMENT_THEORY>SGP4</MEAN_ELEMENT_THEORY></metadata><data><meanElements><EPOCH>2024-04-28T22:10:19.682688</EPOCH><MEAN_MOTION>14.42263429</MEAN_MOTION><ECCENTRICITY>.0007607</ECCENTRICITY><INCLINATION>45.0122</INCLINATION><RA_OF_ASC_NODE>193.3322</RA_OF_ASC_NODE><ARG_OF_PERICENTER>279.5226</ARG_OF_PERICENTER><MEAN_ANOMALY>80.4764</MEAN_ANOMALY></meanElements><tleParameters><EPHEMERIS_TYPE>0</EPHEMERIS_TYPE><CLASSIFICATION_TYPE>U</CLASSIFICATION_TYPE><NORAD_CAT_ID>25114</NORAD_CAT_ID><ELEMENT_SET_NO>999</ELEMENT_SET_NO><REV_AT_EPOCH>38160</REV_AT_EPOCH><BSTAR>.69442E-3</BSTAR><MEAN_MOTION_DOT>.217E-4</MEAN_MOTION_DOT><MEAN_MOTION_DDOT>0</MEAN_MOTION_DDOT></tleParameters></data></segment></body></omm>
<omm id="CCSDS_OMM_VERS" version="2.0">
<header><CREATION_DATE/><ORIGINATOR/></header><body><segment><metadata><OBJECT_NAME>ORBCOMM FM12</OBJECT_NAME><OBJECT_ID>1997-084D</OBJECT_ID><CENTER_NAME>EARTH</CENTER_NAME><REF_FRAME>TEME</REF_FRAME><TIME_SYSTEM>UTC</TIME_SYSTEM><MEAN_ELEMENT_THEORY>SGP4</MEAN_ELEMENT_THEORY></metadata><data><meanElements><EPOCH>2024-04-28T21:12:02.520000</EPOCH><MEAN_MOTION>14.42222270</MEAN_MOTION><ECCENTRICITY>.0006667</ECCENTRICITY><INCLINATION>45.0131</INCLINATION><RA_OF_ASC_NODE>193.2180</RA_OF_ASC_NODE><ARG_OF_PERICENTER>278.4378</ARG_OF_PERICENTER><MEAN_ANOMALY>81.5716</MEAN_ANOMALY></meanElements><tleParameters><EPHEMERIS_TYPE>0</EPHEMERIS_TYPE><CLASSIFICATION_TYPE>U</CLASSIFICATION_TYPE><NORAD_CAT_ID>25115</NORAD_CAT_ID><ELEMENT_SET_NO>999</ELEMENT_SET_NO><REV_AT_EPOCH>38139</REV_AT_EPOCH><BSTAR>.7405E-3</BSTAR><MEAN_MOTION_DOT>.2321E-4</MEAN_MOTION_DOT><MEAN_MOTION_DDOT>0</MEAN_MOTION_DDOT></tleParameters></data></segment></body></omm>
<omm id="CCSDS_OMM_VERS" version="2.0">
<header><CREATION_DATE/><ORIGINATOR/></header><body><segment><metadata><OBJECT_NAME>ORBCOMM FM09</OBJECT_NAME><OBJECT_ID>1997-084E</OBJECT_ID><CENTER_NAME>EARTH</CENTER_NAME><REF_FRAME>TEME</REF_FRAME><TIME_SYSTEM>UTC</TIME_SYSTEM><MEAN_ELEMENT_THEORY>SGP4</MEAN_ELEMENT_THEORY></metadata><data><meanElements><EPOCH>2024-04-29T10:45:55.376640</EPOCH><MEAN_MOTION>14.42189868</MEAN_MOTION><ECCENTRICITY>.0007909</ECCENTRICITY><INCLINATION>45.0135</INCLINATION><RA_OF_ASC_NODE>191.2032</RA_OF_ASC_NODE><ARG_OF_PERICENTER>271.1714</ARG_OF_PERICENTER><MEAN_ANOMALY>88.8230</MEAN_ANOMALY></meanElements><tleParameters><EPHEMERIS_TYPE>0</EPHEMERIS_TYPE><CLASSIFICATION_TYPE>U</CLASSIFICATION_TYPE><NORAD_CAT_ID>25116</NORAD_CAT_ID><ELEMENT_SET_NO>999</ELEMENT_SET_NO><REV_AT_EPOCH>38171</REV_AT_EPOCH><BSTAR>.57332E-3</BSTAR><MEAN_MOTION_DOT>.1763E-4</MEAN_MOTION_DOT><MEAN_MOTION_DDOT>0</MEAN_MOTION_DDOT></tleParameters></data></segment></body></omm>

</ndm>
